{
  "type": "FeatureCollection",
  "features": [
    {
      "type": "Feature",
      "properties": {
        "norad_id": 66528,
        "name": "STARLINK-35928",
        "group": "last-30-days",
        "lat": -10.994185017005393,
        "lon": -101.61030073305466,
        "alt_km": 415.95176496198474,
        "timestamp": "2025-12-10T14:53:35.946403+00:00",
        "meta_object_name": "STARLINK-35928",
        "meta_object_id": "2025-265N",
        "meta_epoch": "2025-12-10T06:00:02.000160",
        "meta_mean_motion": 15.50581691,
        "meta_eccentricity": 0.00015556,
        "meta_inclination": 43,
        "meta_ra_of_asc_node": 68.524,
        "meta_arg_of_pericenter": 270.0258,
        "meta_mean_anomaly": 15.3506,
        "meta_ephemeris_type": 0,
        "meta_classification_type": "U",
        "meta_norad_cat_id": 66528,
        "meta_element_set_no": 999,
        "meta_rev_at_epoch": 459,
        "meta_bstar": -0.00071966408,
        "meta_mean_motion_dot": -0.00042337,
        "meta_mean_motion_ddot": 0,
        "tle_line1": "1 66528U 25265N   25344.25002315 -.00042337  00000+0 -71966-3 0  9995",
        "tle_line2": "2 66528  43.0000  68.5240 0001555 270.0258  15.3506 15.50581691  4590"
      },
      "geometry": {
        "type": "Point",
        "coordinates": [
          -101.61030073305466,
          -10.994185017005393
        ]
      }
    },
    {
      "type": "Feature",
      "properties": {
        "norad_id": 66529,
        "name": "STARLINK-35933",
        "group": "last-30-days",
        "lat": -12.274581346483007,
        "lon": -100.14699609651946,
        "alt_km": 415.8197149224352,
        "timestamp": "2025-12-10T14:53:35.946412+00:00",
        "meta_object_name": "STARLINK-35933",
        "meta_object_id": "2025-265P",
        "meta_epoch": "2025-12-10T06:00:02.000160",
        "meta_mean_motion": 15.50544342,
        "meta_eccentricity": 0.00015617,
        "meta_inclination": 42.9998,
        "meta_ra_of_asc_node": 68.5185,
        "meta_arg_of_pericenter": 262.8858,
        "meta_mean_anomaly": 24.4175,
        "meta_ephemeris_type": 0,
        "meta_classification_type": "U",
        "meta_norad_cat_id": 66529,
        "meta_element_set_no": 999,
        "meta_rev_at_epoch": 459,
        "meta_bstar": 0.00095784993,
        "meta_mean_motion_dot": 0.00056186,
        "meta_mean_motion_ddot": 0,
        "tle_line1": "1 66529U 25265P   25344.25002315  .00056186  00000+0  95785-3 0  9996",
        "tle_line2": "2 66529  42.9998  68.5185 0001561 262.8858  24.4175 15.50544342  4590"
      },
      "geometry": {
        "type": "Point",
        "coordinates": [
          -100.14699609651946,
          -12.274581346483007
        ]
      }
    },
    {
      "type": "Feature",
      "properties": {
        "norad_id": 66530,
        "name": "STARLINK-35961",
        "group": "last-30-days",
        "lat": -13.54113385010209,
        "lon": -98.67578547819788,
        "alt_km": 416.18894887986335,
        "timestamp": "2025-12-10T14:53:35.946421+00:00",
        "meta_object_name": "STARLINK-35961",
        "meta_object_id": "2025-265Q",
        "meta_epoch": "2025-12-10T06:00:02.000160",
        "meta_mean_motion": 15.50603492,
        "meta_eccentricity": 0.00015281,
        "meta_inclination": 43.0002,
        "meta_ra_of_asc_node": 68.5139,
        "meta_arg_of_pericenter": 271.0929,
        "meta_mean_anomaly": 18.1158,
        "meta_ephemeris_type": 0,
        "meta_classification_type": "U",
        "meta_norad_cat_id": 66530,
        "meta_element_set_no": 999,
        "meta_rev_at_epoch": 459,
        "meta_bstar": -0.0013386542,
        "meta_mean_motion_dot": -0.00078163,
        "meta_mean_motion_ddot": 0,
        "tle_line1": "1 66530U 25265Q   25344.25002315 -.00078163  00000+0 -13387-2 0  9996",
        "tle_line2": "2 66530  43.0002  68.5139 0001528 271.0929  18.1158 15.50603492  4596"
      },
      "geometry": {
        "type": "Point",
        "coordinates": [
          -98.67578547819788,
          -13.54113385010209
        ]
      }
    },
    {
      "type": "Feature",
      "properties": {
        "norad_id": 66531,
        "name": "STARLINK-35960",
        "group": "last-30-days",
        "lat": -14.799233182173836,
        "lon": -97.18855320215076,
        "alt_km": 416.2070855032325,
        "timestamp": "2025-12-10T14:53:35.946431+00:00",
        "meta_object_name": "STARLINK-35960",
        "meta_object_id": "2025-265R",
        "meta_epoch": "2025-12-10T06:00:02.000160",
        "meta_mean_motion": 15.50600352,
        "meta_eccentricity": 0.00014085,
        "meta_inclination": 43,
        "meta_ra_of_asc_node": 68.5089,
        "meta_arg_of_pericenter": 265.0452,
        "meta_mean_anomaly": 26.0806,
        "meta_ephemeris_type": 0,
        "meta_classification_type": "U",
        "meta_norad_cat_id": 66531,
        "meta_element_set_no": 999,
        "meta_rev_at_epoch": 459,
        "meta_bstar": -0.0012309755,
        "meta_mean_motion_dot": -0.00071951,
        "meta_mean_motion_ddot": 0,
        "tle_line1": "1 66531U 25265R   25344.25002315 -.00071951  00000+0 -12310-2 0  9990",
        "tle_line2": "2 66531  43.0000  68.5089 0001408 265.0452  26.0806 15.50600352  4590"
      },
      "geometry": {
        "type": "Point",
        "coordinates": [
          -97.18855320215076,
          -14.799233182173836
        ]
      }
    },
    {
      "type": "Feature",
      "properties": {
        "norad_id": 66532,
        "name": "STARLINK-35914",
        "group": "last-30-days",
        "lat": -16.042720178326665,
        "lon": -95.68973315397223,
        "alt_km": 416.3007107589783,
        "timestamp": "2025-12-10T14:53:35.946441+00:00",
        "meta_object_name": "STARLINK-35914",
        "meta_object_id": "2025-265S",
        "meta_epoch": "2025-12-10T06:00:02.000160",
        "meta_mean_motion": 15.50589195,
        "meta_eccentricity": 0.00016211,
        "meta_inclination": 42.9998,
        "meta_ra_of_asc_node": 68.5041,
        "meta_arg_of_pericenter": 269.4479,
        "meta_mean_anomaly": 23.5961,
        "meta_ephemeris_type": 0,
        "meta_classification_type": "U",
        "meta_norad_cat_id": 66532,
        "meta_element_set_no": 999,
        "meta_rev_at_epoch": 459,
        "meta_bstar": -0.00088862819,
        "meta_mean_motion_dot": -0.00052147,
        "meta_mean_motion_ddot": 0,
        "tle_line1": "1 66532U 25265S   25344.25002315 -.00052147  00000+0 -88863-3 0  9994",
        "tle_line2": "2 66532  42.9998  68.5041 0001621 269.4479  23.5961 15.50589195  4592"
      },
      "geometry": {
        "type": "Point",
        "coordinates": [
          -95.68973315397223,
          -16.042720178326665
        ]
      }
    },
    {
      "type": "Feature",
      "properties": {
        "norad_id": 66533,
        "name": "STARLINK-35707",
        "group": "last-30-days",
        "lat": -17.28353343646589,
        "lon": -94.16234310477552,
        "alt_km": 416.28673434086704,
        "timestamp": "2025-12-10T14:53:35.946450+00:00",
        "meta_object_name": "STARLINK-35707",
        "meta_object_id": "2025-265T",
        "meta_epoch": "2025-12-10T06:00:02.000160",
        "meta_mean_motion": 15.50605944,
        "meta_eccentricity": 0.0001646,
        "meta_inclination": 42.9998,
        "meta_ra_of_asc_node": 68.4993,
        "meta_arg_of_pericenter": 263.3561,
        "meta_mean_anomaly": 31.6027,
        "meta_ephemeris_type": 0,
        "meta_classification_type": "U",
        "meta_norad_cat_id": 66533,
        "meta_element_set_no": 999,
        "meta_rev_at_epoch": 459,
        "meta_bstar": -0.0014045028,
        "meta_mean_motion_dot": -0.0008196,
        "meta_mean_motion_ddot": 0,
        "tle_line1": "1 66533U 25265T   25344.25002315 -.00081960  00000+0 -14045-2 0  9990",
        "tle_line2": "2 66533  42.9998  68.4993 0001646 263.3561  31.6027 15.50605944  4594"
      },
      "geometry": {
        "type": "Point",
        "coordinates": [
          -94.16234310477552,
          -17.28353343646589
        ]
      }
    },
    {
      "type": "Feature",
      "properties": {
        "norad_id": 66534,
        "name": "STARLINK-35976",
        "group": "last-30-days",
        "lat": -18.505753268968576,
        "lon": -92.62217920597047,
        "alt_km": 416.3978515110257,
        "timestamp": "2025-12-10T14:53:35.946459+00:00",
        "meta_object_name": "STARLINK-35976",
        "meta_object_id": "2025-265U",
        "meta_epoch": "2025-12-10T06:00:02.000160",
        "meta_mean_motion": 15.50585831,
        "meta_eccentricity": 0.00016315,
        "meta_inclination": 43,
        "meta_ra_of_asc_node": 68.4954,
        "meta_arg_of_pericenter": 265.8155,
        "meta_mean_anomaly": 31.0658,
        "meta_ephemeris_type": 0,
        "meta_classification_type": "U",
        "meta_norad_cat_id": 66534,
        "meta_element_set_no": 999,
        "meta_rev_at_epoch": 459,
        "meta_bstar": -0.00082973148,
        "meta_mean_motion_dot": -0.00048728,
        "meta_mean_motion_ddot": 0,
        "tle_line1": "1 66534U 25265U   25344.25002315 -.00048728  00000+0 -82973-3 0  9992",
        "tle_line2": "2 66534  43.0000  68.4954 0001631 265.8155  31.0658 15.50585831  4594"
      },
      "geometry": {
        "type": "Point",
        "coordinates": [
          -92.62217920597047,
          -18.505753268968576
        ]
      }
    }
  ]
}